IRIDIUM 112             
1 41925U 17003J   23330.49123048  .00000673  00000+0  23334-3 0  9997
2 41925  86.3946 118.5476 0001891  89.4967 270.6446 14.34223054359445
IRIDIUM 111             
1 41926U 17003K   23330.47853261  .00000673  00000+0  23315-3 0  9992
2 41926  86.3948 118.6030 0002078  99.1753 260.9678 14.34224734359427
IRIDIUM 113             
1 42803U 17039A   23330.59804021  .00000622  00000+0  21519-3 0  9997
2 42803  86.3978 352.3054 0001987  97.0776 263.0646 14.34221363337372
IRIDIUM 123             
1 42804U 17039B   23330.56975415  .00000555  00000+0  19094-3 0  9991
2 42804  86.3997  23.8060 0002003  96.6664 263.4760 14.34221389336134
IRIDIUM 120             
1 42805U 17039C   23330.59169393  .00000593  00000+0  20481-3 0  9999
2 42805  86.3967 352.2118 0002180  95.2039 264.9406 14.34222360337361
IRIDIUM 115             
1 42806U 17039D   23330.57879998  .00000760  00000+0  21978-3 0  9995
2 42806  86.4505 352.2118 0002076 103.7533 256.3899 14.43292296339604
IRIDIUM 118             
1 42807U 17039E   23330.60146200  .00000555  00000+0  19100-3 0  9999
2 42807  86.3995  23.7944 0002113  93.2518 266.8920 14.34217439336134
IRIDIUM 117             
1 42808U 17039F   23330.55072601  .00000592  00000+0  20440-3 0  9997
2 42808  86.3995  23.7820 0002159  96.0118 264.1324 14.34221505336155
